{"type": "FeatureCollection", "features": [{"type": "Feature", "properties": {"norad_id": 24876, "name": "GPS BIIR-2  (PRN 13)", "group": "gps-ops", "lat": -51.55256881639603, "lon": 47.639318754370436, "alt_km": 20344.326859835193, "timestamp": "2025-12-04T03:47:54.802075+00:00", "meta": {"OBJECT_NAME": "GPS BIIR-2  (PRN 13)", "OBJECT_ID": "1997-035A", "EPOCH": "2025-12-03T06:13:52.381056", "MEAN_MOTION": 2.00563443, "ECCENTRICITY": 0.009668, "INCLINATION": 55.8906, "RA_OF_ASC_NODE": 106.2397, "ARG_OF_PERICENTER": 57.0195, "MEAN_ANOMALY": 303.8734, "EPHEMERIS_TYPE": 0, "CLASSIFICATION_TYPE": "U", "NORAD_CAT_ID": 24876, "ELEMENT_SET_NO": 999, "REV_AT_EPOCH": 20802, "BSTAR": 0, "MEAN_MOTION_DOT": 1.7e-07, "MEAN_MOTION_DDOT": 0}, "tle": {"line1": "1 24876U 97035A   25337.25963404  .00000017  00000+0  00000+0 0  9990", "line2": "2 24876  55.8906 106.2397 0096680  57.0195 303.8734  2.00563443208023"}}, "geometry": {"type": "Point", "coordinates": [47.639318754370436, -51.55256881639603]}}, {"type": "Feature", "properties": {"norad_id": 26360, "name": "GPS BIIR-4  (PRN 20)", "group": "gps-ops", "lat": 17.714760380616095, "lon": 40.107081366066716, "alt_km": 20259.584722648415, "timestamp": "2025-12-04T03:47:54.802102+00:00", "meta": {"OBJECT_NAME": "GPS BIIR-4  (PRN 20)", "OBJECT_ID": "2000-025A", "EPOCH": "2025-12-03T06:10:25.332960", "MEAN_MOTION": 2.00568333, "ECCENTRICITY": 0.0038792, "INCLINATION": 55.0396, "RA_OF_ASC_NODE": 27.2216, "ARG_OF_PERICENTER": 241.061, "MEAN_ANOMALY": 209.8997, "EPHEMERIS_TYPE": 0, "CLASSIFICATION_TYPE": "U", "NORAD_CAT_ID": 26360, "ELEMENT_SET_NO": 999, "REV_AT_EPOCH": 18734, "BSTAR": 0, "MEAN_MOTION_DOT": -7e-07, "MEAN_MOTION_DDOT": 0}, "tle": {"line1": "1 26360U 00025A   25337.25723765 -.00000070  00000+0  00000+0 0  9997", "line2": "2 26360  55.0396  27.2216 0038792 241.0610 209.8997  2.00568333187347"}}, "geometry": {"type": "Point", "coordinates": [40.107081366066716, 17.714760380616095]}}, {"type": "Feature", "properties": {"norad_id": 26407, "name": "GPS BIIR-5  (PRN 22)", "group": "gps-ops", "lat": -31.486662146722914, "lon": 68.40577881188231, "alt_km": 20135.413650225557, "timestamp": "2025-12-04T03:47:54.802118+00:00", "meta": {"OBJECT_NAME": "GPS BIIR-5  (PRN 22)", "OBJECT_ID": "2000-040A", "EPOCH": "2025-12-02T20:35:05.714592", "MEAN_MOTION": 2.00567701, "ECCENTRICITY": 0.01265555, "INCLINATION": 54.8933, "RA_OF_ASC_NODE": 222.9621, "ARG_OF_PERICENTER": 301.6247, "MEAN_ANOMALY": 60.4206, "EPHEMERIS_TYPE": 0, "CLASSIFICATION_TYPE": "U", "NORAD_CAT_ID": 26407, "ELEMENT_SET_NO": 999, "REV_AT_EPOCH": 18601, "BSTAR": 0, "MEAN_MOTION_DOT": 5.8e-07, "MEAN_MOTION_DDOT": 0}, "tle": {"line1": "1 26407U 00040A   25336.85770503  .00000058  00000+0  00000+0 0  9998", "line2": "2 26407  54.8933 222.9621 0126555 301.6247  60.4206  2.00567701186016"}}, "geometry": {"type": "Point", "coordinates": [68.40577881188231, -31.486662146722914]}}, {"type": "Feature", "properties": {"norad_id": 27663, "name": "GPS BIIR-8  (PRN 16)", "group": "gps-ops", "lat": -3.7264592958422953, "lon": -139.8948637180681, "alt_km": 19960.807989567733, "timestamp": "2025-12-04T03:47:54.802131+00:00", "meta": {"OBJECT_NAME": "GPS BIIR-8  (PRN 16)", "OBJECT_ID": "2003-005A", "EPOCH": "2025-12-02T07:21:58.833216", "MEAN_MOTION": 2.00571367, "ECCENTRICITY": 0.014703, "INCLINATION": 54.9261, "RA_OF_ASC_NODE": 222.7933, "ARG_OF_PERICENTER": 51.6544, "MEAN_ANOMALY": 48.4553, "EPHEMERIS_TYPE": 0, "CLASSIFICATION_TYPE": "U", "NORAD_CAT_ID": 27663, "ELEMENT_SET_NO": 999, "REV_AT_EPOCH": 16736, "BSTAR": 0, "MEAN_MOTION_DOT": 5.5e-07, "MEAN_MOTION_DDOT": 0}, "tle": {"line1": "1 27663U 03005A   25336.30693094  .00000055  00000+0  00000+0 0  9993", "line2": "2 27663  54.9261 222.7933 0147030  51.6544  48.4553  2.00571367167364"}}, "geometry": {"type": "Point", "coordinates": [-139.8948637180681, -3.7264592958422953]}}, {"type": "Feature", "properties": {"norad_id": 28190, "name": "GPS BIIR-11 (PRN 19)", "group": "gps-ops", "lat": 19.621067658539474, "lon": 89.09060141394725, "alt_km": 19898.324748591105, "timestamp": "2025-12-04T03:47:54.802143+00:00", "meta": {"OBJECT_NAME": "GPS BIIR-11 (PRN 19)", "OBJECT_ID": "2004-009A", "EPOCH": "2025-12-03T10:35:53.865888", "MEAN_MOTION": 2.00560969, "ECCENTRICITY": 0.0108207, "INCLINATION": 54.9946, "RA_OF_ASC_NODE": 283.5937, "ARG_OF_PERICENTER": 167.4902, "MEAN_ANOMALY": 191.0311, "EPHEMERIS_TYPE": 0, "CLASSIFICATION_TYPE": "U", "NORAD_CAT_ID": 28190, "ELEMENT_SET_NO": 999, "REV_AT_EPOCH": 15901, "BSTAR": 0, "MEAN_MOTION_DOT": -4.4e-07, "MEAN_MOTION_DDOT": 0}, "tle": {"line1": "1 28190U 04009A   25337.44159567 -.00000044  00000+0  00000+0 0  9991", "line2": "2 28190  54.9946 283.5937 0108207 167.4902 191.0311  2.00560969159012"}}, "geometry": {"type": "Point", "coordinates": [89.09060141394725, 19.621067658539474]}}, {"type": "Feature", "properties": {"norad_id": 28474, "name": "GPS BIIR-13 (PRN 02)", "group": "gps-ops", "lat": -27.302817353947276, "lon": 173.74881544882686, "alt_km": 20215.427539238986, "timestamp": "2025-12-04T03:47:54.802154+00:00", "meta": {"OBJECT_NAME": "GPS BIIR-13 (PRN 02)", "OBJECT_ID": "2004-045A", "EPOCH": "2025-12-02T14:51:16.748640", "MEAN_MOTION": 2.00568864, "ECCENTRICITY": 0.01705399, "INCLINATION": 55.2456, "RA_OF_ASC_NODE": 332.8132, "ARG_OF_PERICENTER": 308.8127, "MEAN_ANOMALY": 235.5488, "EPHEMERIS_TYPE": 0, "CLASSIFICATION_TYPE": "U", "NORAD_CAT_ID": 28474, "ELEMENT_SET_NO": 999, "REV_AT_EPOCH": 15448, "BSTAR": 0, "MEAN_MOTION_DOT": -6.2e-07, "MEAN_MOTION_DDOT": 0}, "tle": {"line1": "1 28474U 04045A   25336.61894385 -.00000062  00000+0  00000+0 0  9998", "line2": "2 28474  55.2456 332.8132 0170539 308.8127 235.5488  2.00568864154486"}}, "geometry": {"type": "Point", "coordinates": [173.74881544882686, -27.302817353947276]}}, {"type": "Feature", "properties": {"norad_id": 28874, "name": "GPS BIIRM-1 (PRN 17)", "group": "gps-ops", "lat": 5.574660465177268, "lon": 97.11295827345907, "alt_km": 20358.003750641543, "timestamp": "2025-12-04T03:47:54.802166+00:00", "meta": {"OBJECT_NAME": "GPS BIIRM-1 (PRN 17)", "OBJECT_ID": "2005-038A", "EPOCH": "2025-12-02T16:12:27.400896", "MEAN_MOTION": 2.00548806, "ECCENTRICITY": 0.01328204, "INCLINATION": 55.0411, "RA_OF_ASC_NODE": 281.1063, "ARG_OF_PERICENTER": 293.4087, "MEAN_ANOMALY": 250.3584, "EPHEMERIS_TYPE": 0, "CLASSIFICATION_TYPE": "U", "NORAD_CAT_ID": 28874, "ELEMENT_SET_NO": 999, "REV_AT_EPOCH": 14789, "BSTAR": 0, "MEAN_MOTION_DOT": -4.3e-07, "MEAN_MOTION_DDOT": 0}, "tle": {"line1": "1 28874U 05038A   25336.67531714 -.00000043  00000+0  00000+0 0  9994", "line2": "2 28874  55.0411 281.1063 0132820 293.4087 250.3584  2.00548806147896"}}, "geometry": {"type": "Point", "coordinates": [97.11295827345907, 5.574660465177268]}}, {"type": "Feature", "properties": {"norad_id": 29486, "name": "GPS BIIRM-2 (PRN 31)", "group": "gps-ops", "lat": 53.1577709440037, "lon": -129.7614058563659, "alt_km": 19922.11156651831, "timestamp": "2025-12-04T03:47:54.802178+00:00", "meta": {"OBJECT_NAME": "GPS BIIRM-2 (PRN 31)", "OBJECT_ID": "2006-042A", "EPOCH": "2025-12-03T13:14:46.148064", "MEAN_MOTION": 2.00554404, "ECCENTRICITY": 0.0107359, "INCLINATION": 54.6928, "RA_OF_ASC_NODE": 159.1054, "ARG_OF_PERICENTER": 51.7394, "MEAN_ANOMALY": 308.7586, "EPHEMERIS_TYPE": 0, "CLASSIFICATION_TYPE": "U", "NORAD_CAT_ID": 29486, "ELEMENT_SET_NO": 999, "REV_AT_EPOCH": 14046, "BSTAR": 0, "MEAN_MOTION_DOT": 1.04e-06, "MEAN_MOTION_DDOT": 0}, "tle": {"line1": "1 29486U 06042A   25337.55192301  .00000104  00000+0  00000+0 0  9990", "line2": "2 29486  54.6928 159.1054 0107359  51.7394 308.7586  2.00554404140460"}}, "geometry": {"type": "Point", "coordinates": [-129.7614058563659, 53.1577709440037]}}, {"type": "Feature", "properties": {"norad_id": 29601, "name": "GPS BIIRM-3 (PRN 12)", "group": "gps-ops", "lat": 34.61804820861922, "lon": 12.821870762810113, "alt_km": 20022.817907986064, "timestamp": "2025-12-04T03:47:54.802189+00:00", "meta": {"OBJECT_NAME": "GPS BIIRM-3 (PRN 12)", "OBJECT_ID": "2006-052A", "EPOCH": "2025-12-03T11:22:11.769312", "MEAN_MOTION": 2.00572797, "ECCENTRICITY": 0.0087547, "INCLINATION": 54.9733, "RA_OF_ASC_NODE": 221.7659, "ARG_OF_PERICENTER": 87.3435, "MEAN_ANOMALY": 273.7468, "EPHEMERIS_TYPE": 0, "CLASSIFICATION_TYPE": "U", "NORAD_CAT_ID": 29601, "ELEMENT_SET_NO": 999, "REV_AT_EPOCH": 13948, "BSTAR": 0, "MEAN_MOTION_DOT": 6.2e-07, "MEAN_MOTION_DDOT": 0}, "tle": {"line1": "1 29601U 06052A   25337.47374733  .00000062  00000+0  00000+0 0  9995", "line2": "2 29601  54.9733 221.7659 0087547  87.3435 273.7468  2.00572797139485"}}, "geometry": {"type": "Point", "coordinates": [12.821870762810113, 34.61804820861922]}}, {"type": "Feature", "properties": {"norad_id": 32260, "name": "GPS BIIRM-4 (PRN 15)", "group": "gps-ops", "lat": -53.6264123648163, "lon": 7.076578863407452, "alt_km": 20616.61244937495, "timestamp": "2025-12-04T03:47:54.802202+00:00", "meta": {"OBJECT_NAME": "GPS BIIRM-4 (PRN 15)", "OBJECT_ID": "2007-047A", "EPOCH": "2025-12-02T18:46:05.230272", "MEAN_MOTION": 2.00564824, "ECCENTRICITY": 0.01643753, "INCLINATION": 53.9483, "RA_OF_ASC_NODE": 88.1698, "ARG_OF_PERICENTER": 85.1293, "MEAN_ANOMALY": 276.722, "EPHEMERIS_TYPE": 0, "CLASSIFICATION_TYPE": "U", "NORAD_CAT_ID": 32260, "ELEMENT_SET_NO": 999, "REV_AT_EPOCH": 13287, "BSTAR": 0, "MEAN_MOTION_DOT": -1.7e-07, "MEAN_MOTION_DDOT": 0}, "tle": {"line1": "1 32260U 07047A   25336.78200498 -.00000017  00000+0  00000+0 0  9995", "line2": "2 32260  53.9483  88.1698 0164375  85.1293 276.7220  2.00564824132879"}}, "geometry": {"type": "Point", "coordinates": [7.076578863407452, -53.6264123648163]}}]}